[{"OBJECT_NAME":"STARLINK-36456","OBJECT_ID":"2026-003Z","EPOCH":"2026-03-09T11:49:39.908928","MEAN_MOTION":15.27597956,"ECCENTRICITY":9.028e-5,"INCLINATION":42.9995,"RA_OF_ASC_NODE":228.1823,"ARG_OF_PERICENTER":209.28,"MEAN_ANOMALY":150.8002,"EPHEMERIS_TYPE":0,"CLASSIFICATION_TYPE":"U","NORAD_CAT_ID":67357,"ELEMENT_SET_NO":999,"REV_AT_EPOCH":879,"BSTAR":0.00096112705,"MEAN_MOTION_DOT":0.00026295,"MEAN_MOTION_DDOT":0},{"OBJECT_NAME":"CZ-6A DEB","OBJECT_ID":"2022-151CC","EPOCH":"2026-03-09T19:21:24.185952","MEAN_MOTION":15.21292269,"ECCENTRICITY":0.00294338,"INCLINATION":98.6347,"RA_OF_ASC_NODE":160.1892,"ARG_OF_PERICENTER":145.6687,"MEAN_ANOMALY":214.6455,"EPHEMERIS_TYPE":0,"CLASSIFICATION_TYPE":"U","NORAD_CAT_ID":54333,"ELEMENT_SET_NO":999,"REV_AT_EPOCH":17712,"BSTAR":0.0073643753,"MEAN_MOTION_DOT":0.00170206,"MEAN_MOTION_DDOT":0}]
